[{"OBJECT_NAME":"JINJUSAT-1B","OBJECT_ID":"2025-052A","EPOCH":"2026-03-09T15:55:38.242848","MEAN_MOTION":15.30194857,"ECCENTRICITY":0.00055504,"INCLINATION":97.4113,"RA_OF_ASC_NODE":325.4613,"ARG_OF_PERICENTER":82.193,"MEAN_ANOMALY":277.9941,"EPHEMERIS_TYPE":0,"CLASSIFICATION_TYPE":"U","NORAD_CAT_ID":63210,"ELEMENT_SET_NO":999,"REV_AT_EPOCH":5486,"BSTAR":0.00068430401,"MEAN_MOTION_DOT":0.00019955,"MEAN_MOTION_DDOT":0},{"OBJECT_NAME":"STARLINK-34892","OBJECT_ID":"2025-189AD","EPOCH":"2026-03-09T15:39:51.708384","MEAN_MOTION":15.30181212,"ECCENTRICITY":9.399e-5,"INCLINATION":53.1593,"RA_OF_ASC_NODE":206.7315,"ARG_OF_PERICENTER":90.7848,"MEAN_ANOMALY":269.326,"EPHEMERIS_TYPE":0,"CLASSIFICATION_TYPE":"U","NORAD_CAT_ID":65350,"ELEMENT_SET_NO":999,"REV_AT_EPOCH":3105,"BSTAR":0.0011708378,"MEAN_MOTION_DOT":0.00034458,"MEAN_MOTION_DDOT":0}]
